XRISM                   
1 57800U 23137A   24211.37652624  .00005792  00000+0  42841-3 0  9995
2 57800  31.0026 103.9556 0009958 268.2190  91.7305 15.01693162 48957
